{"epoch":1784902576,"count":18312,"objects":[{"id":"43698","name":"GSAT 29","type":"PAYLOAD","l1":"1 43698U 18089A   26205.21155848  .00000000  00000-0  00000-0 0  9995","l2":"2 43698   0.0143  57.0542 0003310  48.4088 327.6685  1.00270290 28156"},{"id":"43700","name":"ES'HAIL 2","type":"PAYLOAD","l1":"1 43700U 18090A   26204.54610483  .00000000  00000-0  00000+0 0  9996","l2":"2 43700   0.0186  49.6880 0002702 107.0586   6.9459  1.00273645 28049"},{"id":"43823","name":"GEO-KOMPSAT-2A","type":"PAYLOAD","l1":"1 43823U 18100A   26205.27927134 -.00000339  00000-0  00000-0 0  9996","l2":"2 43823   0.0151 100.4983 0002537 359.2485  71.0452  1.00270689 28009"},{"id":"43824","name":"GSAT 11","type":"PAYLOAD","l1":"1 43824U 18100B   26205.11433727 -.00000072  00000-0  00000-0 0  9994","l2":"2 43824   0.1099 264.2881 0008108 196.8514 315.8546  1.00271761 27842"},{"id":"43864","name":"GSAT 7A","type":"PAYLOAD","l1":"1 43864U 18105A   26204.41080279  .00000000  00000-0  00000+0 0  9994","l2":"2 43864   0.0213  64.5246 0002019  39.0414  48.2262  1.00269286 27819"},{"id":"43867","name":"COSMOS 2533","type":"PAYLOAD","l1":"1 43867U 18107A   26204.62617324 -.00000034  00000-0  00000+0 0  9997","l2":"2 43867   0.0337 119.3150 0000255  83.6239  33.8296  1.00272099 27815"},{"id":"43874","name":"TJS-3","type":"PAYLOAD","l1":"1 43874U 18110A   26203.52197339 -.00000215  00000-0  00000+0 0  9997","l2":"2 43874   2.6334  80.0664 0002758  84.7757 111.5470  1.00270949 27774"},{"id":"43920","name":"CHINASAT 2D","type":"PAYLOAD","l1":"1 43920U 19001A   26205.28933429 -.00000331  00000-0  00000-0 0  9992","l2":"2 43920   0.0215 207.6834 0000388 185.9801 142.5438  1.00272253 54456"},{"id":"44034","name":"SAUDIGEOSAT1/HELLASSAT4","type":"PAYLOAD","l1":"1 44034U 19007A   26204.61993322  .00000157  00000-0  00000-0 0  9994","l2":"2 44034   0.0664 125.8302 0006001  19.9425  57.7559  1.00271830 27730"},{"id":"44035","name":"GSAT 31","type":"PAYLOAD","l1":"1 44035U 19007B   26204.62175323  .00000130  00000-0  00000-0 0  9990","l2":"2 44035   0.0340  98.8377 0001103 106.7812   7.4621  1.00273427 27338"},{"id":"44048","name":"NUSANTARA SATU","type":"PAYLOAD","l1":"1 44048U 19009A   26204.71248773 -.00000230  00000-0  00000-0 0  9998","l2":"2 44048   0.0312 118.5840 0004931  10.4069 214.9369  1.00270430 27136"},{"id":"44067","name":"CHINASAT 6C","type":"PAYLOAD","l1":"1 44067U 19012A   26203.92536367 -.00000331  00000-0  00000-0 0  9996","l2":"2 44067   0.0645  69.6138 0015114 345.7625 348.8834  1.00272055 27093"},{"id":"44071","name":"WGS 10 (USA 291)","type":"PAYLOAD","l1":"1 44071U 19014A   26204.76685792  .00000052  00000-0  00000-0 0  9992","l2":"2 44071   0.0141  75.5176 0000347   5.6385 196.7036  1.00272292 26988"},{"id":"44076","name":"TIANLIAN 2-01","type":"PAYLOAD","l1":"1 44076U 19017A   26205.11433727 -.00000102  00000-0  00000-0 0  9996","l2":"2 44076   0.6322  83.0330 0001851  75.7266 261.2436  1.00271819 27014"},{"id":"44186","name":"ARABSAT 6A","type":"PAYLOAD","l1":"1 44186U 19021A   26205.22267111  .00000159  00000-0  00000-0 0  9998","l2":"2 44186   0.0441  13.2865 0002408 236.0479 163.2713  1.00275755 26524"},{"id":"44204","name":"BEIDOU 3 IGSO-1","type":"PAYLOAD","l1":"1 44204U 19023A   26203.94325155 -.00000206  00000-0  00000-0 0  9995","l2":"2 44204  58.7465  37.2807 0026212 223.4294 138.8657  1.00281730  7576"},{"id":"44231","name":"BEIDOU 2 G8","type":"PAYLOAD","l1":"1 44231U 19027A   26205.28247802 -.00000244  00000-0  00000-0 0  9992","l2":"2 44231   1.7498  74.5017 0009506 284.4550 189.2369  1.00269900 26459"},{"id":"44307","name":"YAMAL 601","type":"PAYLOAD","l1":"1 44307U 19031A   26203.98520046  .00000124  00000-0  00000-0 0  9996","l2":"2 44307   0.0206  94.3773 0002706  26.8481 223.1658  1.00273126 26282"},{"id":"44333","name":"AT&T T-16","type":"PAYLOAD","l1":"1 44333U 19034A   26204.09332698 -.00000111  00000-0  00000-0 0  9992","l2":"2 44333   0.0154  76.6092 0000632 292.9337 224.0216  1.00273461 25991"},{"id":"44334","name":"EUTE 7C","type":"PAYLOAD","l1":"1 44334U 19034B   26205.11155965  .00000053  00000-0  00000-0 0  9991","l2":"2 44334   0.0765 183.6470 0003562 283.0423 242.3024  1.00270529  7207"},{"id":"44337","name":"BEIDOU 3 IGSO-2","type":"PAYLOAD","l1":"1 44337U 19035A   26204.77821130 -.00000115  00000-0  00000-0 0  9990","l2":"2 44337  55.2554 158.5416 0039093 213.1598 328.3926  1.00289602 26034"},{"id":"44457","name":"COSMOS 2539","type":"PAYLOAD","l1":"1 44457U 19048A   26205.25621791  .00000087  00000-0  00000-0 0  9999","l2":"2 44457   0.0289 108.9382 0000507  86.5346 210.7468  1.00274927 25591"},{"id":"44475","name":"EDRS-C","type":"PAYLOAD","l1":"1 44475U 19049A   26204.85441847 -.00000257  00000-0  00000-0 0  9997","l2":"2 44475   0.0174 121.0940 0001136   4.8440 265.7204  1.00271051 25578"},{"id":"44476","name":"INTELSAT 39","type":"PAYLOAD","l1":"1 44476U 19049B   26204.76711792  .00000000  00000-0  00000-0 0  9992","l2":"2 44476   0.0221  55.4484 0000594 320.7391 263.4215  1.00271086 25493"},{"id":"44479","name":"AMOS 17","type":"PAYLOAD","l1":"1 44479U 19050A   26205.22822350  .00000114  00000-0  00000-0 0  9998","l2":"2 44479   0.0219 339.4462 0001742 145.8954 275.7507  1.00271716 25558"},{"id":"44481","name":"AEHF 5 (USA 292)","type":"PAYLOAD","l1":"1 44481U 19051A   26205.16483343 -.00000251  00000-0  00000-0 0  9993","l2":"2 44481   1.4241 339.0993 0064581 357.2159 118.0054  1.00271870 25638"},{"id":"44624","name":"EUTE 5W B","type":"PAYLOAD","l1":"1 44624U 19067A   26205.25283788 -.00000037  00000-0  00000-0 0  9992","l2":"2 44624   0.0714 329.6024 0003316 151.1977 267.1832  1.00272314 24807"},{"id":"44637","name":"TJS-4","type":"PAYLOAD","l1":"1 44637U 19070A   26204.98527683 -.00000166  00000-0  00000-0 0  9997","l2":"2 44637   0.0886 258.4982 0000190 331.2795 150.2316  1.00273464 24906"},{"id":"44800","name":"TIBA-1","type":"PAYLOAD","l1":"1 44800U 19080A   26204.54809816  .00000161  00000-0  00000+0 0  9996","l2":"2 44800   0.0507   2.7156 0002177 120.2219  51.1655  1.00268859 24429"},{"id":"44801","name":"INMARSAT GX5","type":"PAYLOAD","l1":"1 44801U 19080B   26205.25604457  .00000080  00000-0  00000-0 0  9991","l2":"2 44801   0.0396  30.4699 0002372  98.4056 276.2730  1.00272398  7156"},{"id":"44868","name":"JCSAT 18","type":"PAYLOAD","l1":"1 44868U 19091A   26204.99810356 -.00000196  00000-0  00000-0 0  9992","l2":"2 44868   0.0501 243.3218 0000200 258.0733 309.6057  1.00272470 24381"},{"id":"44903","name":"ELEKTRO-L 3","type":"PAYLOAD","l1":"1 44903U 19095A   26205.11433727 -.00000092  00000-0  00000-0 0  9999","l2":"2 44903   0.3495  82.4114 0001682  20.1228 316.4489  1.00271987 24078"}]}