OBJECT_NAME,OBJECT_ID,EPOCH,MEAN_MOTION,ECCENTRICITY,INCLINATION,RA_OF_ASC_NODE,ARG_OF_PERICENTER,MEAN_ANOMALY,EPHEMERIS_TYPE,CLASSIFICATION_TYPE,NORAD_CAT_ID,ELEMENT_SET_NO,REV_AT_EPOCH,BSTAR,MEAN_MOTION_DOT,MEAN_MOTION_DDOT
GSAT-29,2018-089A,2026-07-24T05:04:38.652672,1.00270290,.00033102,0.0143,57.0542,48.4088,327.6685,0,U,43698,999,2815,0,0,0
ES'HAIL 2,2018-090A,2026-07-23T13:06:23.457312,1.00273645,.0002702,0.0186,49.6880,107.0586,6.9459,0,U,43700,999,2804,0,0,0
GEO-KOMPSAT-2A,2018-100A,2026-07-24T06:42:09.043776,1.00270689,.00025374,0.0151,100.4983,359.2485,71.0452,0,U,43823,999,2800,0,-.339E-5,0
GSAT-11,2018-100B,2026-07-24T02:44:38.740128,1.00271761,.00081077,0.1099,264.2881,196.8514,315.8546,0,U,43824,999,2784,0,-.72E-6,0
GSAT-7A,2018-105A,2026-07-23T09:51:33.361056,1.00269286,.0002019,0.0213,64.5246,39.0414,48.2262,0,U,43864,999,2781,0,0,0
COSMOS 2533,2018-107A,2026-07-23T15:01:41.367936,1.00272099,.0000255,0.0337,119.3150,83.6239,33.8296,0,U,43867,999,2781,0,-.34E-6,0
TJS-3,2018-110A,2026-07-22T12:31:38.500896,1.00270949,.0002758,2.6334,80.0664,84.7757,111.5470,0,U,43874,999,2777,0,-.215E-5,0
ZHONGXING-2D,2019-001A,2026-07-24T06:56:38.482656,1.00272253,.00003881,0.0215,207.6834,185.9801,142.5438,0,U,43920,999,5445,0,-.331E-5,0
HELLAS-SAT 4 & SGS-1,2019-007A,2026-07-23T14:52:42.230208,1.00271830,.00060006,0.0664,125.8302,19.9425,57.7559,0,U,44034,999,2773,0,.157E-5,0
GSAT-31,2019-007B,2026-07-23T14:55:19.479072,1.00273427,.00011027,0.0340,98.8377,106.7812,7.4621,0,U,44035,999,2733,0,.13E-5,0
NUSANTARA SATU,2019-009A,2026-07-23T17:05:58.939872,1.00270430,.00049306,0.0312,118.5840,10.4069,214.9369,0,U,44048,999,2713,0,-.23E-5,0
ZHONGXING-6C,2019-012A,2026-07-22T22:12:31.421088,1.00272055,.00151142,0.0645,69.6138,345.7625,348.8834,0,U,44067,999,2709,0,-.331E-5,0
WGS 10 (USA 291),2019-014A,2026-07-23T18:24:16.524288,1.00272292,.00003465,0.0141,75.5176,5.6385,196.7036,0,U,44071,999,2698,0,.52E-6,0
TIANLIAN 2-01,2019-017A,2026-07-24T02:44:38.740128,1.00271819,.00018513,0.6322,83.0330,75.7266,261.2436,0,U,44076,999,2701,0,-.102E-5,0
ARABSAT-6A,2019-021A,2026-07-24T05:20:38.783904,1.00275755,.00024076,0.0441,13.2865,236.0479,163.2713,0,U,44186,999,2652,0,.159E-5,0
BEIDOU-3 IGSO-1,2019-023A,2026-07-22T22:38:16.933920,1.00281730,.00262118,58.7465,37.2807,223.4294,138.8657,0,U,44204,999,757,0,-.206E-5,0
BEIDOU-2 G8,2019-027A,2026-07-24T06:46:46.100928,1.00269900,.00095057,1.7498,74.5017,284.4550,189.2369,0,U,44231,999,2645,0,-.244E-5,0
YAMAL 601,2019-031A,2026-07-22T23:38:41.319744,1.00273126,.00027065,0.0206,94.3773,26.8481,223.1658,0,U,44307,999,2628,0,.124E-5,0
AT&T T-16,2019-034A,2026-07-23T02:14:23.451072,1.00273461,.00006317,0.0154,76.6092,292.9337,224.0216,0,U,44333,999,2599,0,-.111E-5,0
EUTELSAT 7C,2019-034B,2026-07-24T02:40:38.753760,1.00270529,.00035625,0.0765,183.6470,283.0423,242.3024,0,U,44334,999,720,0,.53E-6,0
BEIDOU-3 IGSO-2,2019-035A,2026-07-23T18:40:37.456320,1.00289602,.00390932,55.2554,158.5416,213.1598,328.3926,0,U,44337,999,2603,0,-.115E-5,0
COSMOS 2539,2019-048A,2026-07-24T06:08:57.227424,1.00274927,.00005068,0.0289,108.9382,86.5346,210.7468,0,U,44457,999,2559,0,.87E-6,0
EDRS-C,2019-049A,2026-07-23T20:30:21.755808,1.00271051,.00011358,0.0174,121.0940,4.8440,265.7204,0,U,44475,999,2557,0,-.257E-5,0
INTELSAT 39 (IS-39),2019-049B,2026-07-23T18:24:38.988288,1.00271086,.00005942,0.0221,55.4484,320.7391,263.4215,0,U,44476,999,2549,0,0,0
AMOS-17,2019-050A,2026-07-24T05:28:38.510400,1.00271716,.00017423,0.0219,339.4462,145.8954,275.7507,0,U,44479,999,2555,0,.114E-5,0
AEHF-5 (USA 292),2019-051A,2026-07-24T03:57:21.608352,1.00271870,.00645813,1.4241,339.0993,357.2159,118.0054,0,U,44481,999,2563,0,-.251E-5,0
EUTELSAT 5 WEST B,2019-067A,2026-07-24T06:04:05.192832,1.00272314,.0003316,0.0714,329.6024,151.1977,267.1832,0,U,44624,999,2480,0,-.37E-6,0
TJS-4,2019-070A,2026-07-23T23:38:47.918112,1.00273464,.00001903,0.0886,258.4982,331.2795,150.2316,0,U,44637,999,2490,0,-.166E-5,0
TIBA-1,2019-080A,2026-07-23T13:09:15.681024,1.00268859,.0002177,0.0507,2.7156,120.2219,51.1655,0,U,44800,999,2442,0,.161E-5,0
INMARSAT GX5,2019-080B,2026-07-24T06:08:42.250848,1.00272398,.00023717,0.0396,30.4699,98.4056,276.2730,0,U,44801,999,715,0,.8E-6,0
JCSAT-18 (KACIFIC 1),2019-091A,2026-07-23T23:57:16.147584,1.00272470,.00002004,0.0501,243.3218,258.0733,309.6057,0,U,44868,999,2438,0,-.196E-5,0
ELEKTRO-L 3,2019-095A,2026-07-24T02:44:38.740128,1.00271987,.00016819,0.3495,82.4114,20.1228,316.4489,0,U,44903,999,2407,0,-.92E-6,0
